QIANFAN-234             
1 69863U 26155R   26204.57260247  .00000080  00000+0  28283-4 0  9992
2 69863  89.0061  59.9922 0030503 193.2883 166.7509 14.24414528  2572
QIANFAN-235             
1 69864U 26155S   26204.56864948  .00000216  00000+0  82938-4 0  9998
2 69864  89.0061  59.9915 0031166 195.0994 164.9273 14.26767092  2571
QIANFAN-236             
1 69865U 26155T   26204.57969307  .00000057  00000+0  19368-4 0  9995
2 69865  89.0061  59.9932 0029652 194.3812 165.6538 14.21103898  2574
QIANFAN-237             
1 69866U 26155U   26204.57271275  .00000080  00000+0  28280-4 0  9995
2 69866  89.0060  59.9921 0030806 194.5610 165.4699 14.24432696  2562
QIANFAN-238             
1 69867U 26155V   26204.56848968  .00000225  00000+0  86674-4 0  9996
2 69867  89.0061  59.9914 0031194 194.8383 165.1899 14.26740019  2570
CAS500-4                
1 69869U 26156A   26204.48772932 -.00000130  00000+0 -58563-4 0  9990
2 69869  98.9939 104.4245 0011958 176.5399 183.5851 13.99858461  2266
TRANSPORTER-17 OBJECT B 
1 69870U 26156B   26204.44148464  .00002087  00000+0  21309-3 0  9993
2 69870  97.7510 104.6247 0008435  93.3981 266.8203 14.91663445  2404
PELICAN-11              
1 69871U 26156C   26204.30701792  .00000347  00000+0  40082-4 0  9995
2 69871  97.7549 104.5032 0007583  97.0549 263.1532 14.91674627  2197
TRANSPORTER-17 OBJECT D 
1 69872U 26156D   26204.18304187  .00000836  00000+0  90741-4 0  9999
2 69872  97.7515 104.3497 0005041  67.6036 292.5716 14.90716485  2362
TRANSPORTER-17 OBJECT E 
1 69873U 26156E   26204.50927170  .00000735  00000+0  78822-4 0  9993
2 69873  97.7550 104.6998 0007417  93.7432 266.4635 14.91583231  2418
TRANSPORTER-17 OBJECT F 
1 69874U 26156F   26204.18153855  .00001504  00000+0  15820-3 0  9992
2 69874  97.7520 104.3528 0004723  80.6591 279.5161 14.90867520  2368
TRANSPORTER-17 OBJECT G 
1 69875U 26156G   26204.44947396  .00001184  00000+0  12563-3 0  9998
2 69875  97.7505 104.6147 0005142  77.0700 283.1092 14.90913664  2400
TRANSPORTER-17 OBJECT H 
1 69876U 26156H   26204.43870105  .00000105  00000+0  15881-4 0  9990
2 69876  97.7164 104.6150 0008667  99.7717 260.4481 14.91889149  2401
TRANSPORTER-17 OBJECT J 
1 69877U 26156J   26204.44487355  .00002979  00000+0  30412-3 0  9990
2 69877  97.7541 104.6287 0006612  89.3439 270.8537 14.91356597  2409
TRANSPORTER-17 OBJECT K 
1 69878U 26156K   26204.50779185  .00000676  00000+0  72680-4 0  9999
2 69878  97.7509 104.6916 0008399  94.3895 265.8283 14.91719042  2410
TRANSPORTER-17 OBJECT L 
1 69879U 26156L   26204.30896635  .00001121  00000+0  11750-3 0  9994
2 69879  97.7547 104.4994 0007211  92.4257 267.7787 14.91498997  2389
TRANSPORTER-17 OBJECT M 
1 69880U 26156M   26204.44821926  .00001625  00000+0  16976-3 0  9996
2 69880  97.7451 104.6060 0006353  72.2756 287.9156 14.91033928  2403
TRANSPORTER-17 OBJECT N 
1 69881U 26156N   26204.51533649  .00000597  00000+0  65908-4 0  9994
2 69881  97.7486 104.6789 0005750  77.3485 282.8376 14.91023685  2413
TRANSPORTER-17 OBJECT P 
1 69882U 26156P   26204.17957592  .00003340  00000+0  34274-3 0  9994
2 69882  97.7560 104.3634 0005088  93.4721 266.7080 14.91067430  2362
TRANSPORTER-17 OBJECT Q 
1 69883U 26156Q   26204.51223763  .00000591  00000+0  64858-4 0  9996
2 69883  97.7541 104.6931 0006558  88.7910 271.4060 14.91306567  2419
YAM-17                  
1 69884U 26156R   26204.23830296  .00001178  00000+0  12215-3 0  9992
2 69884  97.7510 104.4300 0008601  97.9238 262.2958 14.91835598  2370
TRANSPORTER-17 OBJECT S 
1 69885U 26156S   26204.44366241  .00000699  00000+0  75433-4 0  9999
2 69885  97.7518 104.6240 0007445  88.3609 271.8463 14.91444903  2402
TRANSPORTER-17 OBJECT T 
1 69886U 26156T   26204.43946822  .00000767  00000+0  81515-4 0  9992
2 69886  97.7547 104.6361 0008330  99.8378 260.3781 14.91835579  2390
TRANSPORTER-17 OBJECT U 
1 69887U 26156U   26204.30562087  .00000171  00000+0  22448-4 0  9995
2 69887  97.7546 104.5034 0008177 100.0713 260.1429 14.91800348  2385
TRANSPORTER-17 OBJECT V 
1 69888U 26156V   26204.51206136  .00001661  00000+0  17212-3 0  9996
2 69888  97.7559 104.6972 0006502  90.0506 270.1458 14.91335637  2253
TRANSPORTER-17 OBJECT W 
1 69889U 26156W   26204.51086562  .00001620  00000+0  16753-3 0  9990
2 69889  97.7546 104.6962 0007139  90.2338 269.9699 14.91449115  2419
TRANSPORTER-17 OBJECT X 
1 69890U 26156X   26204.43892538  .00000635  00000+0  68282-4 0  9991
2 69890  97.7541 104.6353 0008606 100.1115 260.1075 14.91881885  2408
TRANSPORTER-17 OBJECT Y 
1 69891U 26156Y   26204.30860297  .00000676  00000+0  73013-4 0  9998
2 69891  97.7510 104.4914 0007799  90.2331 269.9782 14.91527151  2389
TRANSPORTER-17 OBJECT Z 
1 69892U 26156Z   26204.23731423  .00001184  00000+0  12252-3 0  9991
2 69892  97.7528 104.4352 0008862 100.0018 260.2201 14.91930198  2377
