OBJECT_NAME,OBJECT_ID,EPOCH,MEAN_MOTION,ECCENTRICITY,INCLINATION,RA_OF_ASC_NODE,ARG_OF_PERICENTER,MEAN_ANOMALY,EPHEMERIS_TYPE,CLASSIFICATION_TYPE,NORAD_CAT_ID,ELEMENT_SET_NO,REV_AT_EPOCH,BSTAR,MEAN_MOTION_DOT,MEAN_MOTION_DDOT
QIANFAN-234,2026-155R,2026-07-23T13:44:32.853408,14.24414528,.00305035,89.0061,59.9922,193.2883,166.7509,0,U,69863,999,257,.28283231E-4,.8E-6,0
QIANFAN-235,2026-155S,2026-07-23T13:38:51.315072,14.26767092,.00311664,89.0061,59.9915,195.0994,164.9273,0,U,69864,999,257,.82938039E-4,.216E-5,0
QIANFAN-236,2026-155T,2026-07-23T13:54:45.481248,14.21103898,.00296527,89.0061,59.9932,194.3812,165.6538,0,U,69865,999,257,.19368461E-4,.57E-6,0
QIANFAN-237,2026-155U,2026-07-23T13:44:42.381600,14.24432696,.00308066,89.0060,59.9921,194.5610,165.4699,0,U,69866,999,256,.28279683E-4,.8E-6,0
QIANFAN-238,2026-155V,2026-07-23T13:38:37.508352,14.26740019,.00311945,89.0061,59.9914,194.8383,165.1899,0,U,69867,999,257,.86674419E-4,.225E-5,0
CAS500-4,2026-156A,2026-07-23T11:42:19.813248,13.99858461,.00119588,98.9939,104.4245,176.5399,183.5851,0,U,69869,999,226,-.58563179E-4,-.13E-5,0
TRANSPORTER-17 OBJECT B,2026-156B,2026-07-23T10:35:44.272896,14.91663445,.00084353,97.7510,104.6247,93.3981,266.8203,0,U,69870,999,240,.21309206E-3,.2087E-4,0
PELICAN-11,2026-156C,2026-07-23T07:22:06.348288,14.91674627,.00075839,97.7549,104.5032,97.0549,263.1532,0,U,69871,999,219,.40082055E-4,.347E-5,0
TRANSPORTER-17 OBJECT D,2026-156D,2026-07-23T04:23:34.817568,14.90716485,.00050414,97.7515,104.3497,67.6036,292.5716,0,U,69872,999,236,.90740911E-4,.836E-5,0
TRANSPORTER-17 OBJECT E,2026-156E,2026-07-23T12:13:21.074880,14.91583231,.0007417,97.7550,104.6998,93.7432,266.4635,0,U,69873,999,241,.7882193E-4,.735E-5,0
TRANSPORTER-17 OBJECT F,2026-156F,2026-07-23T04:21:24.930720,14.90867520,.00047239,97.7520,104.3528,80.6591,279.5161,0,U,69874,999,236,.15820465E-3,.1504E-4,0
TRANSPORTER-17 OBJECT G,2026-156G,2026-07-23T10:47:14.550144,14.90913664,.00051422,97.7505,104.6147,77.0700,283.1092,0,U,69875,999,240,.12562884E-3,.1184E-4,0
TRANSPORTER-17 OBJECT H,2026-156H,2026-07-23T10:31:43.770720,14.91889149,.0008667,97.7164,104.6150,99.7717,260.4481,0,U,69876,999,240,.15881146E-4,.105E-5,0
TRANSPORTER-17 OBJECT J,2026-156J,2026-07-23T10:40:37.074720,14.91356597,.00066123,97.7541,104.6287,89.3439,270.8537,0,U,69877,999,240,.30411586E-3,.2979E-4,0
TRANSPORTER-17 OBJECT K,2026-156K,2026-07-23T12:11:13.215840,14.91719042,.00083995,97.7509,104.6916,94.3895,265.8283,0,U,69878,999,241,.72679744E-4,.676E-5,0
TRANSPORTER-17 OBJECT L,2026-156L,2026-07-23T07:24:54.692640,14.91498997,.00072117,97.7547,104.4994,92.4257,267.7787,0,U,69879,999,238,.11750004E-3,.1121E-4,0
TRANSPORTER-17 OBJECT M,2026-156M,2026-07-23T10:45:26.144064,14.91033928,.00063533,97.7451,104.6060,72.2756,287.9156,0,U,69880,999,240,.16976099E-3,.1625E-4,0
TRANSPORTER-17 OBJECT N,2026-156N,2026-07-23T12:22:05.072736,14.91023685,.00057501,97.7486,104.6789,77.3485,282.8376,0,U,69881,999,241,.65907578E-4,.597E-5,0
TRANSPORTER-17 OBJECT P,2026-156P,2026-07-23T04:18:35.359488,14.91067430,.00050883,97.7560,104.3634,93.4721,266.7080,0,U,69882,999,236,.34274486E-3,.334E-4,0
TRANSPORTER-17 OBJECT Q,2026-156Q,2026-07-23T12:17:37.331232,14.91306567,.00065582,97.7541,104.6931,88.7910,271.4060,0,U,69883,999,241,.64857657E-4,.591E-5,0
YAM-17,2026-156R,2026-07-23T05:43:09.375744,14.91835598,.00086015,97.7510,104.4300,97.9238,262.2958,0,U,69884,999,237,.12215192E-3,.1178E-4,0
TRANSPORTER-17 OBJECT S,2026-156S,2026-07-23T10:38:52.432224,14.91444903,.00074458,97.7518,104.6240,88.3609,271.8463,0,U,69885,999,240,.75432695E-4,.699E-5,0
TRANSPORTER-17 OBJECT T,2026-156T,2026-07-23T10:32:50.054208,14.91835579,.00083304,97.7547,104.6361,99.8378,260.3781,0,U,69886,999,239,.81515233E-4,.767E-5,0
TRANSPORTER-17 OBJECT U,2026-156U,2026-07-23T07:20:05.643168,14.91800348,.00081773,97.7546,104.5034,100.0713,260.1429,0,U,69887,999,238,.22448333E-4,.171E-5,0
TRANSPORTER-17 OBJECT V,2026-156V,2026-07-23T12:17:22.101504,14.91335637,.00065026,97.7559,104.6972,90.0506,270.1458,0,U,69888,999,225,.17211541E-3,.1661E-4,0
TRANSPORTER-17 OBJECT W,2026-156W,2026-07-23T12:15:38.789568,14.91449115,.00071399,97.7546,104.6962,90.2338,269.9699,0,U,69889,999,241,.16752996E-3,.162E-4,0
TRANSPORTER-17 OBJECT X,2026-156X,2026-07-23T10:32:03.152832,14.91881885,.00086064,97.7541,104.6353,100.1115,260.1075,0,U,69890,999,240,.68281823E-4,.635E-5,0
TRANSPORTER-17 OBJECT Y,2026-156Y,2026-07-23T07:24:23.296608,14.91527151,.00077997,97.7510,104.4914,90.2331,269.9782,0,U,69891,999,238,.73012579E-4,.676E-5,0
TRANSPORTER-17 OBJECT Z,2026-156Z,2026-07-23T05:41:43.949472,14.91930198,.00088626,97.7528,104.4352,100.0018,260.2201,0,U,69892,999,237,.12251629E-3,.1184E-4,0
